NORAD_CAT_ID,OBJECT_NAME,OBJECT_TYPE,EPOCH,MEAN_MOTION,ECCENTRICITY,INCLINATION,RA_OF_ASC_NODE,ARG_OF_PERICENTER,MEAN_ANOMALY,BSTAR,MEAN_MOTION_DOT,MEAN_MOTION_DDOT,TLE_LINE0,TLE_LINE1,TLE_LINE2,SEMIMAJOR_AXIS,PERIOD,APOGEE,PERIGEE,DECAYED
52666.0,STARLINK-4079,PAYLOAD,2024-08-09 06:48:43,15.0884964,0.0001548,53.2161,225.81,93.1238,266.9931,0.00015501,2.18e-05,0.0,0 STARLINK-4079,1 52666U 22053L   24222.28383233  .00002180  00000-0  15501-3 0  9997,2 52666  53.2161 225.8100 0001548  93.1238 266.9931 15.08849640123880,6917.851,95.437,540.787,538.645,0.0
52666.0,STARLINK-4079,PAYLOAD,2024-08-10 03:28:44,15.08845484,0.0001657,53.2159,221.9423,81.9107,278.2073,-3.6231e-05,-8.65e-06,0.0,0 STARLINK-4079,1 52666U 22053L   24223.14495818 -.00000865  00000-0 -36231-4 0  9990,2 52666  53.2159 221.9423 0001657  81.9107 278.2073 15.08845484124014,6917.864,95.437,540.875,538.582,0.0
52666.0,STARLINK-4079,PAYLOAD,2024-08-10 09:50:16,15.0884195,0.0001603,53.2162,220.7548,101.3167,258.8005,-3.3965e-05,-8.29e-06,0.0,0 STARLINK-4079,1 52666U 22053L   24223.40991762 -.00000829  00000-0 -33965-4 0  9999,2 52666  53.2162 220.7548 0001603 101.3167 258.8005 15.08841950124054,6917.874,95.437,540.848,538.63,0.0
52666.0,STARLINK-4079,PAYLOAD,2024-08-11 09:41:02,15.08855834,0.0001433,53.216,216.2942,89.8751,270.2406,0.00011994,1.622e-05,0.0,0 STARLINK-4079,1 52666U 22053L   24224.40350299  .00001622  00000-0  11994-3 0  9991,2 52666  53.2160 216.2942 0001433  89.8751 270.2406 15.08855834124206,6917.832,95.437,540.688,538.706,0.0
52666.0,STARLINK-4079,PAYLOAD,2024-08-11 16:02:35,15.08847363,0.0001518,53.2164,215.1009,89.3909,270.7257,5.4312e-05,5.77e-06,0.0,0 STARLINK-4079,1 52666U 22053L   24224.66846980  .00000577  00000-0  54312-4 0  9996,2 52666  53.2164 215.1009 0001518  89.3909 270.7257 15.08847363124247,6917.858,95.437,540.773,538.673,0.0
52666.0,STARLINK-4079,PAYLOAD,2024-08-11 22:24:09,15.08837271,0.0001528,53.216,213.9158,87.9119,272.2048,7.5945e-05,9.21e-06,0.0,0 STARLINK-4079,1 52666U 22053L   24224.93343779  .00000921  00000-0  75945-4 0  9992,2 52666  53.2160 213.9158 0001528  87.9119 272.2048 15.08837271124288,6917.889,95.438,540.811,538.697,0.0
52666.0,STARLINK-4079,PAYLOAD,2024-08-12 06:21:04,15.08847169,0.000138,53.2149,212.4303,93.4776,266.6374,0.00015192,2.131e-05,0.0,0 STARLINK-4079,1 52666U 22053L   24225.26463063  .00002131  00000-0  15192-3 0  9990,2 52666  53.2149 212.4303 0001380  93.4776 266.6374 15.08847169124330,6917.858,95.437,540.678,538.769,0.0
52666.0,STARLINK-4079,PAYLOAD,2024-08-12 22:14:54,15.08856631,0.0001597,53.2165,209.4596,102.5924,257.5247,0.00027282,4.059e-05,0.0,0 STARLINK-4079,1 52666U 22053L   24225.92702447  .00004059  00000-0  27282-3 0  9999,2 52666  53.2165 209.4596 0001597 102.5924 257.5247 15.08856631124438,6917.83,95.437,540.799,538.59,0.0
52666.0,STARLINK-4079,PAYLOAD,2024-08-13 04:36:27,15.08841445,0.0001763,53.2164,208.2652,101.1418,258.9773,-0.00012276,-2.241e-05,0.0,0 STARLINK-4079,1 52666U 22053L   24226.19198774 -.00002241  00000-0 -12276-3 0  9991,2 52666  53.2164 208.2652 0001763 101.1418 258.9773 15.08841445124475,6917.876,95.437,540.961,538.521,0.0
52666.0,STARLINK-4079,PAYLOAD,2024-08-13 06:11:50,15.08846859,0.0001462,53.2155,207.9688,95.3401,264.7758,-4.2206e-05,-9.6e-06,0.0,0 STARLINK-4079,1 52666U 22053L   24226.25822584 -.00000960  00000-0 -42206-4 0  9994,2 52666  53.2155 207.9688 0001462  95.3401 264.7758 15.08846859124485,6917.859,95.437,540.736,538.713,0.0
52666.0,STARLINK-4079,PAYLOAD,2024-08-13 15:44:09,15.08840506,0.0001348,53.2146,206.1856,86.185,273.9296,-9.1373e-05,-1.742e-05,0.0,0 STARLINK-4079,1 52666U 22053L   24226.65566976 -.00001742  00000-0 -91373-4 0  9996,2 52666  53.2146 206.1856 0001348  86.1850 273.9296 15.08840506124541,6917.879,95.438,540.676,538.811,0.0
52666.0,STARLINK-4079,PAYLOAD,2024-08-14 04:27:16,15.0882149,0.0001791,53.217,203.8036,88.307,271.8127,-0.00023587,-4.038e-05,0.0,0 STARLINK-4079,1 52666U 22053L   24227.18560459 -.00004038  00000-0 -23587-3 0  9997,2 52666  53.2170 203.8036 0001791  88.3070 271.8127 15.08821490124622,6917.937,95.439,541.041,538.563,0.0
52666.0,STARLINK-4079,PAYLOAD,2024-08-14 07:38:02,15.08821288,0.0001852,53.2174,203.2084,85.4169,274.7035,-0.00022585,-3.879e-05,0.0,0 STARLINK-4079,1 52666U 22053L   24227.31808655 -.00003879  00000-0 -22585-3 0  9994,2 52666  53.2174 203.2084 0001852  85.4169 274.7035 15.08821288124645,6917.938,95.439,541.084,538.521,0.0
52666.0,STARLINK-4079,PAYLOAD,2024-08-14 15:34:58,15.08828301,0.0001455,53.2155,201.7242,84.7133,275.4025,-0.00010383,-1.939e-05,0.0,0 STARLINK-4079,1 52666U 22053L   24227.64928492 -.00001939  00000-0 -10383-3 0  9990,2 52666  53.2155 201.7242 0001455  84.7133 275.4025 15.08828301124690,6917.916,95.438,540.788,538.775,0.0
52666.0,STARLINK-4079,PAYLOAD,2024-08-15 05:53:26,15.08836631,0.0001364,53.2147,199.0469,83.3562,276.7585,0.00018142,2.6e-05,0.0,0 STARLINK-4079,1 52666U 22053L   24228.24544613  .00002600  00000-0  18142-3 0  9991,2 52666  53.2147 199.0469 0001364  83.3562 276.7585 15.08836631124781,6917.891,95.438,540.699,538.812,0.0
52666.0,STARLINK-4079,PAYLOAD,2024-08-15 15:25:45,15.08839825,0.0001423,53.2147,197.2646,82.5137,277.6017,0.00035656,5.391e-05,0.0,0 STARLINK-4079,1 52666U 22053L   24228.64288867  .00005391  00000-0  35656-3 0  9990,2 52666  53.2147 197.2646 0001423  82.5137 277.6017 15.08839825124848,6917.881,95.438,540.73,538.762,0.0
52666.0,STARLINK-4079,PAYLOAD,2024-08-16 04:08:50,15.08853364,0.0001413,53.2141,194.8851,81.9713,278.1439,0.00057211,8.832e-05,0.0,0 STARLINK-4079,1 52666U 22053L   24229.17280590  .00008832  00000-0  57211-3 0  9998,2 52666  53.2141 194.8851 0001413  81.9713 278.1439 15.08853364124922,6917.84,95.437,540.682,538.727,0.0
52666.0,STARLINK-4079,PAYLOAD,2024-08-16 21:38:05,15.08839688,0.0001569,53.2144,191.6142,81.1796,278.9374,0.00015949,2.251e-05,0.0,0 STARLINK-4079,1 52666U 22053L   24229.90145294  .00002251  00000-0  15949-3 0  9991,2 52666  53.2144 191.6142 0001569  81.1796 278.9374 15.08839688125030,6917.881,95.438,540.832,538.661,0.0
52666.0,STARLINK-4079,PAYLOAD,2024-08-17 03:59:38,15.08821024,0.0001407,53.2148,190.4235,93.5214,266.5939,-0.00027022,-4.584e-05,0.0,0 STARLINK-4079,1 52666U 22053L   24230.16641835 -.00004584  00000-0 -27022-3 0  9991,2 52666  53.2148 190.4235 0001407  93.5214 266.5939 15.08821024125076,6917.938,95.439,540.777,538.83,0.0
52666.0,STARLINK-4079,PAYLOAD,2024-08-18 03:50:26,15.08841148,0.0001445,53.2156,185.9629,101.5357,258.5797,0.00096047,0.00015031,0.0,0 STARLINK-4079,1 52666U 22053L   24231.16002678  .00015031  00000-0  96047-3 0  9998,2 52666  53.2156 185.9629 0001445 101.5357 258.5797 15.08841148125220,6917.877,95.437,540.742,538.742,0.0
52666.0,STARLINK-4079,PAYLOAD,2024-08-18 07:01:12,15.0884917,0.0001461,53.2156,185.3685,101.9931,258.1225,0.0011718,0.00018415,0.0,0 STARLINK-4079,1 52666U 22053L   24231.29250646  .00018415  00000-0  11718-2 0  9992,2 52666  53.2156 185.3685 0001461 101.9931 258.1225 15.08849170125243,6917.852,95.437,540.728,538.707,0.0
52666.0,STARLINK-4079,PAYLOAD,2024-08-19 13:13:30,15.08866382,0.0001573,53.2163,179.7183,86.0146,274.1026,0.00042512,6.489e-05,0.0,0 STARLINK-4079,1 52666U 22053L   24232.55104951  .00006489  00000-0  42512-3 0  9994,2 52666  53.2163 179.7183 0001573  86.0146 274.1026 15.08866382125438,6917.8,95.436,540.753,538.577,0.0
52666.0,STARLINK-4079,PAYLOAD,2024-08-20 05:07:22,15.0884184,0.0001371,53.2165,176.746,89.2059,270.909,0.0002168,3.164e-05,0.0,0 STARLINK-4079,1 52666U 22053L   24233.21345265  .00003164  00000-0  21680-3 0  9993,2 52666  53.2165 176.7460 0001371  89.2059 270.9090 15.08841840125537,6917.875,95.437,540.688,538.791,0.0
52666.0,STARLINK-4079,PAYLOAD,2024-08-21 03:22:45,15.08869022,0.0001387,53.2165,172.5837,90.939,269.1761,0.0011744,0.00018467,0.0,0 STARLINK-4079,1 52666U 22053L   24234.14080691  .00018467  00000-0  11744-2 0  9996,2 52666  53.2165 172.5837 0001387  90.9390 269.1761 15.08869022125675,6917.792,95.436,540.616,538.697,0.0
52666.0,STARLINK-4079,PAYLOAD,2024-08-21 04:58:08,15.08872791,0.0001376,53.2165,172.2862,89.2028,270.9122,0.0012331,0.00019409,0.0,0 STARLINK-4079,1 52666U 22053L   24234.20704541  .00019409  00000-0  12331-2 0  9990,2 52666  53.2165 172.2862 0001376  89.2028 270.9122 15.08872791125686,6917.78,95.435,540.597,538.693,0.0
52666.0,STARLINK-4079,PAYLOAD,2024-08-21 19:16:37,15.08857512,0.0002293,53.2158,169.6107,69.8993,290.2246,0.00030432,4.561e-05,0.0,0 STARLINK-4079,1 52666U 22053L   24234.80320846  .00004561  00000-0  30432-3 0  9994,2 52666  53.2158 169.6107 0002293  69.8993 290.2246 15.08857512125770,6917.827,95.436,541.278,538.106,0.0
